MAKERSAT 0              
1 43016U 17073D   26068.63673096  .00023659  00000+0  71590-3 0  9993
2 43016  97.4777 310.6155 0115258 266.0743  92.7313 15.27797199451246
STARLINK-3346           
1 50821U 22001U   26068.59231829  .00000358  00000+0  40580-4 0  9998
2 50821  53.2177 169.4427 0001325  91.9280 268.1864 15.08837433230390
